{
  "norad_id": 66270,
  "name": "STARLINK-35757",
  "history": [
    {
      "epoch": "2026-03-28T17:55:08.807808Z",
      "apogee_km": 476.30204026387764,
      "perigee_km": 474.06799435267567,
      "latitude_deg": -2.4697745882493604e-05,
      "longitude_deg": 7.814634699457104,
      "height_km": 476.03469388370235,
      "semi_major_axis_km": 6853.322017308276,
      "eccentricity": 0.00016299,
      "inclination_deg": 53.1595,
      "raan_deg": 102.764,
      "arg_perigee_deg": 87.5447,
      "mean_anomaly_deg": 272.574,
      "mean_motion_rev_day": 15.30210065
    },
    {
      "epoch": "2026-03-29T04:53:31.039008Z",
      "apogee_km": 476.1134081666105,
      "perigee_km": 474.1725592752209,
      "latitude_deg": -3.766220823912243e-05,
      "longitude_deg": -159.35004356520838,
      "height_km": 476.1734420551345,
      "semi_major_axis_km": 6853.279983720915,
      "eccentricity": 0.0001416,
      "inclination_deg": 53.1575,
      "raan_deg": 100.6426,
      "arg_perigee_deg": 97.8668,
      "mean_anomaly_deg": 262.2493,
      "mean_motion_rev_day": 15.30224143
    },
    {
      "epoch": "2026-03-30T04:24:19.094112Z",
      "apogee_km": 476.0836668429529,
      "perigee_km": 474.347027358197,
      "latitude_deg": -9.862897020747281e-06,
      "longitude_deg": -157.57011075060132,
      "height_km": 475.91852468241177,
      "semi_major_axis_km": 6853.352347100575,
      "eccentricity": 0.0001267,
      "inclination_deg": 53.1569,
      "raan_deg": 96.0884,
      "arg_perigee_deg": 77.0482,
      "mean_anomaly_deg": 283.066,
      "mean_motion_rev_day": 15.30199907
    },
    {
      "epoch": "2026-03-30T05:58:22.367136Z",
      "apogee_km": 476.05729252753554,
      "perigee_km": 474.4028897117396,
      "latitude_deg": 3.37045104403889e-05,
      "longitude_deg": 178.54990613627402,
      "height_km": 475.9221199575194,
      "semi_major_axis_km": 6853.367091119637,
      "eccentricity": 0.0001207,
      "inclination_deg": 53.1565,
      "raan_deg": 95.7864,
      "arg_perigee_deg": 75.5937,
      "mean_anomaly_deg": 284.5198,
      "mean_motion_rev_day": 15.30194969
    },
    {
      "epoch": "2026-03-30T07:32:25.343808Z",
      "apogee_km": 475.9322772555097,
      "perigee_km": 474.4382530017119,
      "latitude_deg": 1.3626806601232439e-05,
      "longitude_deg": 154.67061377960073,
      "height_km": 475.9283297037953,
      "semi_major_axis_km": 6853.3222651286105,
      "eccentricity": 0.000109,
      "inclination_deg": 53.1568,
      "raan_deg": 95.4839,
      "arg_perigee_deg": 78.0286,
      "mean_anomaly_deg": 282.0837,
      "mean_motion_rev_day": 15.30209982
    },
    {
      "epoch": "2026-03-30T16:56:43.742976Z",
      "apogee_km": 475.8219021989071,
      "perigee_km": 474.2702044919679,
      "latitude_deg": 1.156361150778913e-05,
      "longitude_deg": 11.387795316302132,
      "height_km": 475.7913912016692,
      "semi_major_axis_km": 6853.183053345437,
      "eccentricity": 0.00011321,
      "inclination_deg": 53.1567,
      "raan_deg": 93.664,
      "arg_perigee_deg": 78.6549,
      "mean_anomaly_deg": 281.4579,
      "mean_motion_rev_day": 15.30256608
    },
    {
      "epoch": "2026-03-31T16:27:31.614048Z",
      "apogee_km": 476.10240083193366,
      "perigee_km": 474.3945371730588,
      "latitude_deg": 4.357458086022177e-05,
      "longitude_deg": 13.17040085534433,
      "height_km": 475.8493000803794,
      "semi_major_axis_km": 6853.385469002496,
      "eccentricity": 0.0001246,
      "inclination_deg": 53.1565,
      "raan_deg": 89.1117,
      "arg_perigee_deg": 69.6469,
      "mean_anomaly_deg": 290.4666,
      "mean_motion_rev_day": 15.30188814
    },
    {
      "epoch": "2026-04-01T09:42:07.778880Z",
      "apogee_km": 476.13293336712104,
      "perigee_km": 474.3140514924298,
      "latitude_deg": 4.360519972587361e-05,
      "longitude_deg": 110.47715459900851,
      "height_km": 475.64865038007565,
      "semi_major_axis_km": 6853.360492429775,
      "eccentricity": 0.0001327,
      "inclination_deg": 53.1579,
      "raan_deg": 85.7773,
      "arg_perigee_deg": 58.67,
      "mean_anomaly_deg": 301.4431,
      "mean_motion_rev_day": 15.30197179
    },
    {
      "epoch": "2026-04-02T09:12:55.682784Z",
      "apogee_km": 476.07562170303845,
      "perigee_km": 474.26442972228324,
      "latitude_deg": -7.268589854147305e-05,
      "longitude_deg": 112.25821216354483,
      "height_km": 476.02011088639136,
      "semi_major_axis_km": 6853.30702571266,
      "eccentricity": 0.00013214,
      "inclination_deg": 53.1583,
      "raan_deg": 81.2237,
      "arg_perigee_deg": 86.9771,
      "mean_anomaly_deg": 273.138,
      "mean_motion_rev_day": 15.30215086
    },
    {
      "epoch": "2026-04-02T23:19:24.151584Z",
      "apogee_km": 476.35353389820466,
      "perigee_km": 473.8555273602906,
      "latitude_deg": -2.907060736436073e-05,
      "longitude_deg": -102.6724661229895,
      "height_km": 476.34997764888067,
      "semi_major_axis_km": 6853.241530629248,
      "eccentricity": 0.00018225,
      "inclination_deg": 53.1578,
      "raan_deg": 78.491,
      "arg_perigee_deg": 106.1909,
      "mean_anomaly_deg": 253.9292,
      "mean_motion_rev_day": 15.30237022
    },
    {
      "epoch": "2026-04-03T08:43:43.484736Z",
      "apogee_km": 476.03331077350595,
      "perigee_km": 474.31299285919704,
      "latitude_deg": 3.1819612038199575e-05,
      "longitude_deg": 114.04445960417343,
      "height_km": 475.8997407179237,
      "semi_major_axis_km": 6853.310151816351,
      "eccentricity": 0.00012551,
      "inclination_deg": 53.1588,
      "raan_deg": 76.6747,
      "arg_perigee_deg": 78.5049,
      "mean_anomaly_deg": 281.6093,
      "mean_motion_rev_day": 15.30214039
    },
    {
      "epoch": "2026-04-04T05:06:25.794720Z",
      "apogee_km": 476.14763254073387,
      "perigee_km": 474.29407337582234,
      "latitude_deg": -2.282046445287304e-05,
      "longitude_deg": 163.58631509577216,
      "height_km": 476.24436794704445,
      "semi_major_axis_km": 6853.357852958278,
      "eccentricity": 0.00013523,
      "inclination_deg": 53.1598,
      "raan_deg": 72.7298,
      "arg_perigee_deg": 97.7862,
      "mean_anomaly_deg": 262.3292,
      "mean_motion_rev_day": 15.30198063
    },
    {
      "epoch": "2026-04-05T07:45:19.860192Z",
      "apogee_km": 476.160589687599,
      "perigee_km": 474.3423857218104,
      "latitude_deg": -9.489892178362818e-06,
      "longitude_deg": 117.61004199195494,
      "height_km": 476.0192357924375,
      "semi_major_axis_km": 6853.388487704704,
      "eccentricity": 0.00013265,
      "inclination_deg": 53.16,
      "raan_deg": 67.5732,
      "arg_perigee_deg": 81.7616,
      "mean_anomaly_deg": 278.3535,
      "mean_motion_rev_day": 15.30187803
    },
    {
      "epoch": "2026-04-05T15:35:35.945376Z",
      "apogee_km": 476.23135738719157,
      "perigee_km": 474.2055055216533,
      "latitude_deg": -5.412776152879918e-05,
      "longitude_deg": -1.798700517289143,
      "height_km": 476.1887488189426,
      "semi_major_axis_km": 6853.355431454423,
      "eccentricity": 0.0001478,
      "inclination_deg": 53.1601,
      "raan_deg": 66.0534,
      "arg_perigee_deg": 94.1049,
      "mean_anomaly_deg": 266.012,
      "mean_motion_rev_day": 15.30198874
    },
    {
      "epoch": "2026-04-06T02:33:58.143744Z",
      "apogee_km": 476.2688594835172,
      "perigee_km": 474.0914235613136,
      "latitude_deg": 5.820284833428641e-06,
      "longitude_deg": -168.96428818009372,
      "height_km": 476.18459561322294,
      "semi_major_axis_km": 6853.317141522415,
      "eccentricity": 0.00015886,
      "inclination_deg": 53.1608,
      "raan_deg": 63.9309,
      "arg_perigee_deg": 95.6256,
      "mean_anomaly_deg": 264.4926,
      "mean_motion_rev_day": 15.30211698
    },
    {
      "epoch": "2026-04-07T20:53:24.476352Z",
      "apogee_km": 476.24480785270134,
      "perigee_km": 474.0887584825168,
      "latitude_deg": -3.9409329903101475e-05,
      "longitude_deg": -93.75092999174318,
      "height_km": 475.9850579636275,
      "semi_major_axis_km": 6853.303783167609,
      "eccentricity": 0.0001573,
      "inclination_deg": 53.1617,
      "raan_deg": 55.7422,
      "arg_perigee_deg": 85.7665,
      "mean_anomaly_deg": 274.3515,
      "mean_motion_rev_day": 15.30216172
    },
    {
      "epoch": "2026-04-08T14:07:59.768544Z",
      "apogee_km": 476.39464709374624,
      "perigee_km": 473.9947474000046,
      "latitude_deg": 5.117676996991815e-05,
      "longitude_deg": 3.5558340354471016,
      "height_km": 476.084192213172,
      "semi_major_axis_km": 6853.331697246876,
      "eccentricity": 0.00017509,
      "inclination_deg": 53.1607,
      "raan_deg": 52.4041,
      "arg_perigee_deg": 89.6192,
      "mean_anomaly_deg": 270.501,
      "mean_motion_rev_day": 15.30206823
    },
    {
      "epoch": "2026-04-09T13:38:47.681952Z",
      "apogee_km": 476.1030488406459,
      "perigee_km": 474.32666003997565,
      "latitude_deg": -1.7417205055379448e-05,
      "longitude_deg": 5.339983508745734,
      "height_km": 476.1001729879215,
      "semi_major_axis_km": 6853.3518544403105,
      "eccentricity": 0.0001296,
      "inclination_deg": 53.1603,
      "raan_deg": 47.8536,
      "arg_perigee_deg": 89.1771,
      "mean_anomaly_deg": 270.9378,
      "mean_motion_rev_day": 15.30200072
    },
    {
      "epoch": "2026-04-10T05:19:19.060896Z",
      "apogee_km": 475.5454885194931,
      "perigee_km": 474.79162490825547,
      "latitude_deg": 6.06013172118109e-05,
      "longitude_deg": 126.53242914495729,
      "height_km": 476.40736612061323,
      "semi_major_axis_km": 6853.3055567138745,
      "eccentricity": 5.5e-05,
      "inclination_deg": 53.1604,
      "raan_deg": 44.8205,
      "arg_perigee_deg": 154.2003,
      "mean_anomaly_deg": 205.9026,
      "mean_motion_rev_day": 15.30215578
    }
  ]
}